{"type": "FeatureCollection", "features": [ {"type": "Feature", "properties": {"norad_id": 41836, "name": "HIMAWARI-9", "group": "weather", "lat": 0.018237859251329713, "lon": 82.49067433108257, "alt_km": 35791.17964082473, "timestamp": "2025-12-09T14:52:25.808206+00:00", "meta": {"OBJECT_NAME": "HIMAWARI-9", "OBJECT_ID": "2016-064A", "EPOCH": "2025-12-09T03:58:11.773920", "MEAN_MOTION": 1.00272664, "ECCENTRICITY": 0.00012566, "INCLINATION": 0.0225, "RA_OF_ASC_NODE": 72.887, "ARG_OF_PERICENTER": 194.8332, "MEAN_ANOMALY": 10.7648, "EPHEMERIS_TYPE": 0, "CLASSIFICATION_TYPE": "U", "NORAD_CAT_ID": 41836, "ELEMENT_SET_NO": 999, "REV_AT_EPOCH": 3330, "BSTAR": 0, "MEAN_MOTION_DOT": -2.72e-06, "MEAN_MOTION_DDOT": 0}, "tle": {"line1": "1 41836U 16064A   25343.16541405 -.00000272  00000+0  00000+0 0  9992", "line2": "2 41836   0.0225  72.8870 0001256 194.8332  10.7648  1.00272664 33302"}}, "geometry": {"type": "Point", "coordinates": [82.49067433108257, 0.018237859251329713]}}, {"type": "Feature", "properties": {"norad_id": 41866, "name": "GOES 16", "group": "weather", "lat": 0.054249532766663354, "lon": -162.99517617902507, "alt_km": 35780.05820225482, "timestamp": "2025-12-09T14:52:25.808219+00:00", "meta": {"OBJECT_NAME": "GOES 16", "OBJECT_ID": "2016-071A", "EPOCH": "2025-12-09T07:04:51.778272", "MEAN_MOTION": 1.00270909, "ECCENTRICITY": 0.00033994, "INCLINATION": 0.0693, "RA_OF_ASC_NODE": 102.0245, "ARG_OF_PERICENTER": 159.1988, "MEAN_ANOMALY": 178.6091, "EPHEMERIS_TYPE": 0, "CLASSIFICATION_TYPE": "U", "NORAD_CAT_ID": 41866, "ELEMENT_SET_NO": 999, "REV_AT_EPOCH": 3319, "BSTAR": 0, "MEAN_MOTION_DOT": -8.9e-07, "MEAN_MOTION_DDOT": 0}, "tle": {"line1": "1 41866U 16071A   25343.29504373 -.00000089  00000+0  00000+0 0  9996", "line2": "2 41866   0.0693 102.0245 0003399 159.1988 178.6091  1.00270909 33190"}}, "geometry": {"type": "Point", "coordinates": [-162.99517617902507, 0.054249532766663354]}}, {"type": "Feature", "properties": {"norad_id": 41882, "name": "FENGYUN 4A", "group": "weather", "lat": -0.5141819616971689, "lon": 65.54931899386803, "alt_km": 35804.8607985254, "timestamp": "2025-12-09T14:52:25.808231+00:00", "meta": {"OBJECT_NAME": "FENGYUN 4A", "OBJECT_ID": "2016-077A", "EPOCH": "2025-12-08T17:16:38.775936", "MEAN_MOTION": 1.00275455, "ECCENTRICITY": 0.00049335, "INCLINATION": 1.839, "RA_OF_ASC_NODE": 82.4323, "ARG_OF_PERICENTER": 143.079, "MEAN_ANOMALY": 235.2066, "EPHEMERIS_TYPE": 0, "CLASSIFICATION_TYPE": "U", "NORAD_CAT_ID": 41882, "ELEMENT_SET_NO": 999, "REV_AT_EPOCH": 3302, "BSTAR": 0, "MEAN_MOTION_DOT": -3.55e-06, "MEAN_MOTION_DDOT": 0}, "tle": {"line1": "1 41882U 16077A   25342.71989324 -.00000355  00000+0  00000+0 0  9995", "line2": "2 41882   1.8390  82.4323 0004933 143.0790 235.2066  1.00275455 33022"}}, "geometry": {"type": "Point", "coordinates": [65.54931899386803, -0.5141819616971689]}}, {"type": "Feature", "properties": {"norad_id": 41884, "name": "CYGFM05", "group": "weather", "lat": -26.481122861115665, "lon": -67.00842740781648, "alt_km": 424.265037535537, "timestamp": "2025-12-09T14:52:25.808242+00:00", "meta": {"OBJECT_NAME": "CYGFM05", "OBJECT_ID": "2016-078A", "EPOCH": "2025-12-08T16:12:15.134688", "MEAN_MOTION": 15.47410776, "ECCENTRICITY": 0.00096392, "INCLINATION": 34.9598, "RA_OF_ASC_NODE": 73.6774, "ARG_OF_PERICENTER": 145.1655, "MEAN_ANOMALY": 214.9699, "EPHEMERIS_TYPE": 0, "CLASSIFICATION_TYPE": "U", "NORAD_CAT_ID": 41884, "ELEMENT_SET_NO": 999, "REV_AT_EPOCH": 49913, "BSTAR": 0.00049402945, "MEAN_MOTION_DOT": 0.00026159, "MEAN_MOTION_DDOT": 0}, "tle": {"line1": "1 41884U 16078A   25342.67517517  .00026159  00000+0  49403-3 0  9997", "line2": "2 41884  34.9598  73.6774 0009639 145.1655 214.9699 15.47410776499131"}}, "geometry": {"type": "Point", "coordinates": [-67.00842740781648, -26.481122861115665]}}, {"type": "Feature", "properties": {"norad_id": 41885, "name": "CYGFM04", "group": "weather", "lat": 34.26495416839076, "lon": 119.78996011918149, "alt_km": 411.3516928892768, "timestamp": "2025-12-09T14:52:25.808264+00:00", "meta": {"OBJECT_NAME": "CYGFM04", "OBJECT_ID": "2016-078B", "EPOCH": "2025-12-09T06:48:13.143744", "MEAN_MOTION": 15.50135624, "ECCENTRICITY": 0.00091013, "INCLINATION": 34.9354, "RA_OF_ASC_NODE": 44.5806, "ARG_OF_PERICENTER": 179.8308, "MEAN_ANOMALY": 180.2418, "EPHEMERIS_TYPE": 0, "CLASSIFICATION_TYPE": "U", "NORAD_CAT_ID": 41885, "ELEMENT_SET_NO": 999, "REV_AT_EPOCH": 49940, "BSTAR": 0.00048651514, "MEAN_MOTION_DOT": 0.00028361, "MEAN_MOTION_DDOT": 0}, "tle": {"line1": "1 41885U 16078B   25343.28348546  .00028361  00000+0  48652-3 0  9992", "line2": "2 41885  34.9354  44.5806 0009101 179.8308 180.2418 15.50135624499402"}}, "geometry": {"type": "Point", "coordinates": [119.78996011918149, 34.26495416839076]}}, {"type": "Feature", "properties": {"norad_id": 41886, "name": "CYGFM02", "group": "weather", "lat": 33.93244746106087, "lon": 115.22155804879394, "alt_km": 407.8982083361152, "timestamp": "2025-12-09T14:52:25.808277+00:00", "meta": {"OBJECT_NAME": "CYGFM02", "OBJECT_ID": "2016-078C", "EPOCH": "2025-12-09T06:49:16.323744", "MEAN_MOTION": 15.51499737, "ECCENTRICITY": 0.0010779, "INCLINATION": 34.9441, "RA_OF_ASC_NODE": 42.9464, "ARG_OF_PERICENTER": 179.1583, "MEAN_ANOMALY": 180.9159, "EPHEMERIS_TYPE": 0, "CLASSIFICATION_TYPE": "U", "NORAD_CAT_ID": 41886, "ELEMENT_SET_NO": 999, "REV_AT_EPOCH": 49953, "BSTAR": 0.00049378423, "MEAN_MOTION_DOT": 0.00030254, "MEAN_MOTION_DDOT": 0}, "tle": {"line1": "1 41886U 16078C   25343.28421671  .00030254  00000+0  49378-3 0  9994", "line2": "2 41886  34.9441  42.9464 0010779 179.1583 180.9159 15.51499737499535"}}, "geometry": {"type": "Point", "coordinates": [115.22155804879394, 33.93244746106087]}}, {"type": "Feature", "properties": {"norad_id": 41887, "name": "CYGFM01", "group": "weather", "lat": -34.91428515521866, "lon": -21.62732396724794, "alt_km": 427.98460445574347, "timestamp": "2025-12-09T14:52:25.808288+00:00", "meta": {"OBJECT_NAME": "CYGFM01", "OBJECT_ID": "2016-078D", "EPOCH": "2025-12-08T16:03:02.145312", "MEAN_MOTION": 15.47982626, "ECCENTRICITY": 0.00091843, "INCLINATION": 34.9428, "RA_OF_ASC_NODE": 76.0976, "ARG_OF_PERICENTER": 136.6674, "MEAN_ANOMALY": 223.4771, "EPHEMERIS_TYPE": 0, "CLASSIFICATION_TYPE": "U", "NORAD_CAT_ID": 41887, "ELEMENT_SET_NO": 999, "REV_AT_EPOCH": 49907, "BSTAR": 0.00050735925, "MEAN_MOTION_DOT": 0.00027409, "MEAN_MOTION_DDOT": 0}, "tle": {"line1": "1 41887U 16078D   25342.66877483  .00027409  00000+0  50736-3 0  9990", "line2": "2 41887  34.9428  76.0976 0009184 136.6674 223.4771 15.47982626499075"}}, "geometry": {"type": "Point", "coordinates": [-21.62732396724794, -34.91428515521866]}}, {"type": "Feature", "properties": {"norad_id": 41888, "name": "CYGFM08", "group": "weather", "lat": -28.48809739392854, "lon": 1.9087097530975097, "alt_km": 425.87351056568605, "timestamp": "2025-12-09T14:52:25.808300+00:00", "meta": {"OBJECT_NAME": "CYGFM08", "OBJECT_ID": "2016-078E", "EPOCH": "2025-12-09T05:50:15.035712", "MEAN_MOTION": 15.4920492, "ECCENTRICITY": 0.00111723, "INCLINATION": 34.9462, "RA_OF_ASC_NODE": 55.3741, "ARG_OF_PERICENTER": 167.1024, "MEAN_ANOMALY": 192.9985, "EPHEMERIS_TYPE": 0, "CLASSIFICATION_TYPE": "U", "NORAD_CAT_ID": 41888, "ELEMENT_SET_NO": 999, "REV_AT_EPOCH": 49939, "BSTAR": 0.00048970472, "MEAN_MOTION_DOT": 0.00027641, "MEAN_MOTION_DDOT": 0}, "tle": {"line1": "1 41888U 16078E   25343.24322958  .00027641  00000+0  48970-3 0  9993", "line2": "2 41888  34.9462  55.3741 0011172 167.1024 192.9985 15.49204920499390"}}, "geometry": {"type": "Point", "coordinates": [1.9087097530975097, -28.48809739392854]}}, {"type": "Feature", "properties": {"norad_id": 41890, "name": "CYGFM07", "group": "weather", "lat": -33.610600563669315, "lon": -30.223645218634996, "alt_km": 420.0656796399735, "timestamp": "2025-12-09T14:52:25.808311+00:00", "meta": {"OBJECT_NAME": "CYGFM07", "OBJECT_ID": "2016-078G", "EPOCH": "2025-12-09T05:55:17.418432", "MEAN_MOTION": 15.49781338, "ECCENTRICITY": 0.00095347, "INCLINATION": 34.9479, "RA_OF_ASC_NODE": 44.352, "ARG_OF_PERICENTER": 184.8004, "MEAN_ANOMALY": 175.2628, "EPHEMERIS_TYPE": 0, "CLASSIFICATION_TYPE": "U", "NORAD_CAT_ID": 41890, "ELEMENT_SET_NO": 999, "REV_AT_EPOCH": 49941, "BSTAR": 0.00048302626, "MEAN_MOTION_DOT": 0.00027807, "MEAN_MOTION_DDOT": 0}, "tle": {"line1": "1 41890U 16078G   25343.24672938  .00027807  00000+0  48303-3 0  9996", "line2": "2 41890  34.9479  44.3520 0009534 184.8004 175.2628 15.49781338499411"}}, "geometry": {"type": "Point", "coordinates": [-30.223645218634996, -33.610600563669315]}}, {"type": "Feature", "properties": {"norad_id": 41891, "name": "CYGFM03", "group": "weather", "lat": 29.553209335925917, "lon": 169.52777144820112, "alt_km": 408.5615061373737, "timestamp": "2025-12-09T14:52:25.808322+00:00", "meta": {"OBJECT_NAME": "CYGFM03", "OBJECT_ID": "2016-078H", "EPOCH": "2025-12-09T06:37:33.788928", "MEAN_MOTION": 15.4968475, "ECCENTRICITY": 0.00088446, "INCLINATION": 34.9435, "RA_OF_ASC_NODE": 46.0758, "ARG_OF_PERICENTER": 172.237, "MEAN_ANOMALY": 187.849, "EPHEMERIS_TYPE": 0, "CLASSIFICATION_TYPE": "U", "NORAD_CAT_ID": 41891, "ELEMENT_SET_NO": 999, "REV_AT_EPOCH": 49939, "BSTAR": 0.00047892903, "MEAN_MOTION_DOT": 0.00027468, "MEAN_MOTION_DDOT": 0}, "tle": {"line1": "1 41891U 16078H   25343.27608552  .00027468  00000+0  47893-3 0  9997", "line2": "2 41891  34.9435  46.0758 0008844 172.2370 187.8490 15.49684750499399"}}, "geometry": {"type": "Point", "coordinates": [169.52777144820112, 29.553209335925917]}}]}